FENGYUN 1C DEB          
1 33629U 99025DDN 17345.03971847  .00004763  00000-0  42540-3 0  9995
2 33629  98.5866  76.7476 0112602 249.1238 109.7892 14.91723847183762
